{"type": "FeatureCollection", "features": [ {"type": "Feature", "properties": {"norad_id": 35071, "name": "COSMOS 2251 DEB", "group": "cosmos-2251-debris", "lat": -71.32403936349233, "lon": 134.9932524038347, "alt_km": 611.1810150272677, "timestamp": "2025-12-02T23:34:15.913200+00:00", "meta": {"OBJECT_NAME": "COSMOS 2251 DEB", "OBJECT_ID": "1993-036AJA", "EPOCH": "2025-11-29T00:05:19.896000", "MEAN_MOTION": 15.0306331, "ECCENTRICITY": 0.00683354, "INCLINATION": 73.9323, "RA_OF_ASC_NODE": 201.6723, "ARG_OF_PERICENTER": 102.3686, "MEAN_ANOMALY": 258.5162, "EPHEMERIS_TYPE": 0, "CLASSIFICATION_TYPE": "U", "NORAD_CAT_ID": 35071, "ELEMENT_SET_NO": 999, "REV_AT_EPOCH": 67330, "BSTAR": 0.00075428024, "MEAN_MOTION_DOT": 0.00010673, "MEAN_MOTION_DDOT": 0}, "tle": {"line1": "1 35071U 93036AJA 25333.00370250  .00010673  00000+0  75428-3 0  9995", "line2": "2 35071  73.9323 201.6723 0068335 102.3686 258.5162 15.03063310673307"}}, "geometry": {"type": "Point", "coordinates": [134.9932524038347, -71.32403936349233]}}, {"type": "Feature", "properties": {"norad_id": 35073, "name": "COSMOS 2251 DEB", "group": "cosmos-2251-debris", "lat": 39.65755737901701, "lon": 156.7022460330432, "alt_km": 560.122216278477, "timestamp": "2025-12-02T23:34:15.913211+00:00", "meta": {"OBJECT_NAME": "COSMOS 2251 DEB", "OBJECT_ID": "1993-036AJC", "EPOCH": "2025-11-29T08:29:21.429600", "MEAN_MOTION": 14.99364384, "ECCENTRICITY": 0.00097336, "INCLINATION": 74.0024, "RA_OF_ASC_NODE": 357.8403, "ARG_OF_PERICENTER": 101.5288, "MEAN_ANOMALY": 258.6992, "EPHEMERIS_TYPE": 0, "CLASSIFICATION_TYPE": "U", "NORAD_CAT_ID": 35073, "ELEMENT_SET_NO": 999, "REV_AT_EPOCH": 67278, "BSTAR": 0.00211185, "MEAN_MOTION_DOT": 0.00025921, "MEAN_MOTION_DDOT": 0}, "tle": {"line1": "1 35073U 93036AJC 25333.35372025  .00025921  00000+0  21119-2 0  9996", "line2": "2 35073  74.0024 357.8403 0009733 101.5288 258.6992 14.99364384672786"}}, "geometry": {"type": "Point", "coordinates": [156.7022460330432, 39.65755737901701]}}, {"type": "Feature", "properties": {"norad_id": 35280, "name": "COSMOS 2251 DEB", "group": "cosmos-2251-debris", "lat": 40.013757244647046, "lon": 98.72453050160036, "alt_km": 45.49015350596346, "timestamp": "2025-12-02T23:34:15.913221+00:00", "meta": {"OBJECT_NAME": "COSMOS 2251 DEB", "OBJECT_ID": "1993-036AJJ", "EPOCH": "2025-11-12T05:44:02.487552", "MEAN_MOTION": 15.48119691, "ECCENTRICITY": 0.00063876, "INCLINATION": 73.9815, "RA_OF_ASC_NODE": 131.656, "ARG_OF_PERICENTER": 153.4254, "MEAN_ANOMALY": 206.7286, "EPHEMERIS_TYPE": 0, "CLASSIFICATION_TYPE": "U", "NORAD_CAT_ID": 35280, "ELEMENT_SET_NO": 999, "REV_AT_EPOCH": 87074, "BSTAR": 0.018411483, "MEAN_MOTION_DOT": 0.01068411, "MEAN_MOTION_DDOT": 0}, "tle": {"line1": "1 35280U 93036AJJ 25316.23891768  .01068411  00000+0  18411-1 0  9996", "line2": "2 35280  73.9815 131.6560 0006387 153.4254 206.7286 15.48119691870745"}}, "geometry": {"type": "Point", "coordinates": [98.72453050160036, 40.013757244647046]}}, {"type": "Feature", "properties": {"norad_id": 35284, "name": "COSMOS 2251 DEB", "group": "cosmos-2251-debris", "lat": -52.50929641307873, "lon": 124.28182152734867, "alt_km": 777.4554460616191, "timestamp": "2025-12-02T23:34:15.913232+00:00", "meta": {"OBJECT_NAME": "COSMOS 2251 DEB", "OBJECT_ID": "1993-036AJN", "EPOCH": "2025-12-01T13:38:31.155360", "MEAN_MOTION": 14.382963, "ECCENTRICITY": 0.00163281, "INCLINATION": 74.049, "RA_OF_ASC_NODE": 284.9919, "ARG_OF_PERICENTER": 3.7139, "MEAN_ANOMALY": 114.9177, "EPHEMERIS_TYPE": 0, "CLASSIFICATION_TYPE": "U", "NORAD_CAT_ID": 35284, "ELEMENT_SET_NO": 999, "REV_AT_EPOCH": 65365, "BSTAR": 0.00020439824, "MEAN_MOTION_DOT": 5.97e-06, "MEAN_MOTION_DDOT": 0}, "tle": {"line1": "1 35284U 93036AJN 25335.56841615  .00000597  00000+0  20440-3 0  9990", "line2": "2 35284  74.0490 284.9919 0016328   3.7139 114.9177 14.38296300653654"}}, "geometry": {"type": "Point", "coordinates": [124.28182152734867, -52.50929641307873]}}, {"type": "Feature", "properties": {"norad_id": 35287, "name": "COSMOS 2251 DEB", "group": "cosmos-2251-debris", "lat": 56.666866466849676, "lon": 88.25469894180473, "alt_km": 763.8891364702622, "timestamp": "2025-12-02T23:34:15.913242+00:00", "meta": {"OBJECT_NAME": "COSMOS 2251 DEB", "OBJECT_ID": "1993-036AJR", "EPOCH": "2025-12-02T08:41:39.046272", "MEAN_MOTION": 14.36360787, "ECCENTRICITY": 0.0017133, "INCLINATION": 74.0297, "RA_OF_ASC_NODE": 295.2045, "ARG_OF_PERICENTER": 34.862, "MEAN_ANOMALY": 120.536, "EPHEMERIS_TYPE": 0, "CLASSIFICATION_TYPE": "U", "NORAD_CAT_ID": 35287, "ELEMENT_SET_NO": 999, "REV_AT_EPOCH": 86743, "BSTAR": 0.00020403, "MEAN_MOTION_DOT": 5.72e-06, "MEAN_MOTION_DDOT": 0}, "tle": {"line1": "1 35287U 93036AJR 25336.36225748  .00000572  00000+0  20403-3 0  9997", "line2": "2 35287  74.0297 295.2045 0017133  34.8620 120.5360 14.36360787867431"}}, "geometry": {"type": "Point", "coordinates": [88.25469894180473, 56.666866466849676]}}, {"type": "Feature", "properties": {"norad_id": 35288, "name": "COSMOS 2251 DEB", "group": "cosmos-2251-debris", "lat": -26.645413876673597, "lon": 25.74936183144046, "alt_km": 669.037115904378, "timestamp": "2025-12-02T23:34:15.913253+00:00", "meta": {"OBJECT_NAME": "COSMOS 2251 DEB", "OBJECT_ID": "1993-036AJS", "EPOCH": "2025-12-02T12:13:38.607168", "MEAN_MOTION": 14.65270796, "ECCENTRICITY": 0.0039607, "INCLINATION": 73.9516, "RA_OF_ASC_NODE": 34.9675, "ARG_OF_PERICENTER": 269.719, "MEAN_ANOMALY": 89.9439, "EPHEMERIS_TYPE": 0, "CLASSIFICATION_TYPE": "U", "NORAD_CAT_ID": 35288, "ELEMENT_SET_NO": 999, "REV_AT_EPOCH": 87728, "BSTAR": 0.0014116, "MEAN_MOTION_DOT": 7.675e-05, "MEAN_MOTION_DDOT": 0}, "tle": {"line1": "1 35288U 93036AJS 25336.50947462  .00007675  00000+0  14116-2 0  9992", "line2": "2 35288  73.9516  34.9675 0039607 269.7190  89.9439 14.65270796877283"}}, "geometry": {"type": "Point", "coordinates": [25.74936183144046, -26.645413876673597]}}, {"type": "Feature", "properties": {"norad_id": 35290, "name": "COSMOS 2251 DEB", "group": "cosmos-2251-debris", "lat": 73.79944602807399, "lon": 177.84322269441594, "alt_km": 623.2047656963205, "timestamp": "2025-12-02T23:34:15.913263+00:00", "meta": {"OBJECT_NAME": "COSMOS 2251 DEB", "OBJECT_ID": "1993-036AJU", "EPOCH": "2025-12-01T06:35:33.142560", "MEAN_MOTION": 14.79807104, "ECCENTRICITY": 0.00037082, "INCLINATION": 74.0051, "RA_OF_ASC_NODE": 82.0624, "ARG_OF_PERICENTER": 206.8807, "MEAN_ANOMALY": 153.2178, "EPHEMERIS_TYPE": 0, "CLASSIFICATION_TYPE": "U", "NORAD_CAT_ID": 35290, "ELEMENT_SET_NO": 999, "REV_AT_EPOCH": 87788, "BSTAR": 0.002855926, "MEAN_MOTION_DOT": 0.00021548, "MEAN_MOTION_DDOT": 0}, "tle": {"line1": "1 35290U 93036AJU 25335.27468915  .00021548  00000+0  28559-2 0  9990", "line2": "2 35290  74.0051  82.0624 0003708 206.8807 153.2178 14.79807104877885"}}, "geometry": {"type": "Point", "coordinates": [177.84322269441594, 73.79944602807399]}}, {"type": "Feature", "properties": {"norad_id": 35432, "name": "COSMOS 2251 DEB", "group": "cosmos-2251-debris", "lat": -39.36341383348175, "lon": 22.472493092068042, "alt_km": 506.7148144205157, "timestamp": "2025-12-02T23:34:15.913273+00:00", "meta": {"OBJECT_NAME": "COSMOS 2251 DEB", "OBJECT_ID": "1993-036AKA", "EPOCH": "2025-12-01T05:04:45.083424", "MEAN_MOTION": 15.18892352, "ECCENTRICITY": 0.0011708, "INCLINATION": 74.02, "RA_OF_ASC_NODE": 39.7774, "ARG_OF_PERICENTER": 355.1104, "MEAN_ANOMALY": 4.9976, "EPHEMERIS_TYPE": 0, "CLASSIFICATION_TYPE": "U", "NORAD_CAT_ID": 35432, "ELEMENT_SET_NO": 999, "REV_AT_EPOCH": 87328, "BSTAR": 0.0078933, "MEAN_MOTION_DOT": 0.00168825, "MEAN_MOTION_DDOT": 0}, "tle": {"line1": "1 35432U 93036AKA 25335.21163291  .00168825  00000+0  78933-2 0  9992", "line2": "2 35432  74.0200  39.7774 0011708 355.1104   4.9976 15.18892352873282"}}, "geometry": {"type": "Point", "coordinates": [22.472493092068042, -39.36341383348175]}}, {"type": "Feature", "properties": {"norad_id": 35433, "name": "COSMOS 2251 DEB", "group": "cosmos-2251-debris", "lat": -61.11988439807844, "lon": -34.936008087805924, "alt_km": 791.9321817167029, "timestamp": "2025-12-02T23:34:15.913283+00:00", "meta": {"OBJECT_NAME": "COSMOS 2251 DEB", "OBJECT_ID": "1993-036AKB", "EPOCH": "2025-11-29T08:56:22.068960", "MEAN_MOTION": 14.34715508, "ECCENTRICITY": 0.00253594, "INCLINATION": 74.0352, "RA_OF_ASC_NODE": 2.9393, "ARG_OF_PERICENTER": 62.2545, "MEAN_ANOMALY": 316.1289, "EPHEMERIS_TYPE": 0, "CLASSIFICATION_TYPE": "U", "NORAD_CAT_ID": 35433, "ELEMENT_SET_NO": 999, "REV_AT_EPOCH": 86389, "BSTAR": 0.00023326055, "MEAN_MOTION_DOT": 6.37e-06, "MEAN_MOTION_DDOT": 0}, "tle": {"line1": "1 35433U 93036AKB 25333.37247765  .00000637  00000+0  23326-3 0  9990", "line2": "2 35433  74.0352   2.9393 0025359  62.2545 316.1289 14.34715508863897"}}, "geometry": {"type": "Point", "coordinates": [-34.936008087805924, -61.11988439807844]}}, {"type": "Feature", "properties": {"norad_id": 35434, "name": "COSMOS 2251 DEB", "group": "cosmos-2251-debris", "lat": 12.086091934736896, "lon": 47.725037538786154, "alt_km": 852.7218782265418, "timestamp": "2025-12-02T23:34:15.913294+00:00", "meta": {"OBJECT_NAME": "COSMOS 2251 DEB", "OBJECT_ID": "1993-036AKC", "EPOCH": "2025-11-30T00:02:53.789280", "MEAN_MOTION": 14.25623606, "ECCENTRICITY": 0.00876191, "INCLINATION": 74.0414, "RA_OF_ASC_NODE": 236.6139, "ARG_OF_PERICENTER": 309.9857, "MEAN_ANOMALY": 49.362, "EPHEMERIS_TYPE": 0, "CLASSIFICATION_TYPE": "U", "NORAD_CAT_ID": 35434, "ELEMENT_SET_NO": 999, "REV_AT_EPOCH": 85936, "BSTAR": 0.00077223856, "MEAN_MOTION_DOT": 1.879e-05, "MEAN_MOTION_DDOT": 0}, "tle": {"line1": "1 35434U 93036AKC 25334.00201145  .00001879  00000+0  77224-3 0  9999", "line2": "2 35434  74.0414 236.6139 0087619 309.9857  49.3620 14.25623606859363"}}, "geometry": {"type": "Point", "coordinates": [47.725037538786154, 12.086091934736896]}}]}